OBJECT_NAME,OBJECT_ID,EPOCH,MEAN_MOTION,ECCENTRICITY,INCLINATION,RA_OF_ASC_NODE,ARG_OF_PERICENTER,MEAN_ANOMALY,EPHEMERIS_TYPE,CLASSIFICATION_TYPE,NORAD_CAT_ID,ELEMENT_SET_NO,REV_AT_EPOCH,BSTAR,MEAN_MOTION_DOT,MEAN_MOTION_DDOT
KUIPER-00513,2026-140G,2026-07-10T21:53:20.103936,15.38099831,.0008464,51.8811,283.9899,329.1913,30.8576,0,U,69598,999,488,.38385E-3,.14268E-3,0
KUIPER-00516,2026-140H,2026-07-09T14:51:04.423680,15.37505084,.00068355,51.8784,290.3069,334.1487,25.9157,0,U,69599,999,468,.33369668E-3,.12103E-3,0
KUIPER-00517,2026-140J,2026-07-10T21:34:06.925728,15.38752830,.0010559,51.8782,283.8906,279.1127,80.8666,0,U,69600,999,488,.62329E-3,.23974E-3,0
KUIPER-00520,2026-140K,2026-07-09T14:52:36.223680,15.37569154,.00068809,51.8793,290.3215,333.8181,26.2457,0,U,69601,999,468,.7027917E-3,.26029E-3,0
KUIPER-00522,2026-140L,2026-07-11T05:16:26.665248,15.38591542,.0013056,51.8783,282.2957,251.1977,108.7594,0,U,69602,999,493,.50704E-3,.1933E-3,0
KUIPER-00528,2026-140M,2026-07-09T14:55:41.422944,15.37415170,.00059269,51.8764,290.3271,340.6948,19.3813,0,U,69603,999,468,.66168979E-3,.24351E-3,0
KUIPER-00532,2026-140N,2026-07-10T20:46:45.295392,15.36565844,.0004385,51.8773,284.4109,22.9967,337.1215,0,U,69604,999,487,.59406E-3,.2121E-3,0
KUIPER-00533,2026-140P,2026-07-10T21:48:04.442400,15.38215921,.0008355,51.8795,283.9557,304.7442,55.2758,0,U,69605,999,488,.38316E-3,.14296E-3,0
KUIPER-00534,2026-140Q,2026-07-10T21:21:42.069600,15.38648491,.0013293,51.8821,283.8428,252.6383,107.3151,0,U,69606,999,488,.44872E-3,.17089E-3,0
KUIPER-00537,2026-140R,2026-07-10T19:38:02.859360,15.34278710,.0010875,51.8795,284.8475,40.5158,319.6635,0,U,69607,999,486,.33566E-3,.10962E-3,0
KUIPER-00538,2026-140S,2026-07-10T18:54:04.979232,15.37674850,.0006367,51.8801,284.6464,326.1928,33.8652,0,U,69608,999,486,.59406E-3,.22003E-3,0
KUIPER-00540,2026-140T,2026-07-10T14:27:11.332800,15.36908561,.0006428,51.8833,285.6586,10.6370,349.4751,0,U,69609,999,483,.50281E-3,.18092E-3,0
KUIPER-00541,2026-140U,2026-07-10T21:48:08.076384,15.38356975,.0008334,51.8827,283.9683,308.1236,51.8999,0,U,69610,999,488,.36978E-3,.13847E-3,0
KUIPER-00542,2026-140V,2026-07-10T21:45:53.543808,15.38225960,.0008215,51.8805,283.9498,300.4533,59.5642,0,U,69611,999,488,.47198E-3,.17716E-3,0
KUIPER-00543,2026-140W,2026-07-09T15:08:32.804736,15.36747809,.00077039,51.8763,290.3813,16.9946,343.1297,0,U,69612,999,468,.31555921E-3,.11141E-3,0
KUIPER-00544,2026-140X,2026-07-11T05:39:42.267168,15.38122983,.0006795,51.8794,282.4003,309.4065,50.6320,0,U,69613,999,493,.53187E-3,.19947E-3,0
KUIPER-00546,2026-140Y,2026-07-10T21:22:49.771776,15.38799892,.0014315,51.8779,283.8413,247.6445,112.3025,0,U,69614,999,488,.51686E-3,.19861E-3,0
KUIPER-00547,2026-140Z,2026-07-10T18:35:18.230784,15.37847980,.0010813,51.8821,284.5670,274.6951,85.2801,0,U,69615,999,486,.471E-3,.17472E-3,0
KUIPER-00549,2026-140AA,2026-07-10T20:35:56.408064,15.37283743,.0007424,51.8787,284.3653,1.6768,358.4242,0,U,69616,999,487,-.14489E-3,-.5771E-4,0
KUIPER-00550,2026-140AB,2026-07-10T21:26:05.957664,15.32923437,.0007243,51.8788,284.5897,42.2863,317.8679,0,U,69617,999,487,.68036E-3,.21664E-3,0
KUIPER-00551,2026-140AC,2026-07-10T21:32:22.125984,15.38362313,.0011772,51.8787,283.8874,267.3163,92.6477,0,U,69618,999,488,.89896E-3,.34373E-3,0
KUIPER-00554,2026-140AD,2026-07-10T06:04:17.637024,15.37895633,.0010891,51.8775,287.0639,274.9137,85.0606,0,U,69619,999,478,.59105486E-3,.22076E-3,0
KUIPER-00555,2026-140AE,2026-07-11T05:23:56.954400,15.37887478,.0011149,51.8816,282.3402,267.7347,92.2364,0,U,69620,999,493,.32017E-3,.11757E-3,0
KUIPER-00556,2026-140AF,2026-07-10T21:35:54.326112,15.38267241,.0012047,51.8809,283.9056,253.3320,106.6344,0,U,69621,999,488,.43068E-3,.16169E-3,0
KUIPER-00557,2026-140AG,2026-07-10T18:39:35.449632,15.37516845,.000981,51.8794,284.5803,280.2133,79.7748,0,U,69622,999,486,.43621E-3,.15968E-3,0
KUIPER-00560,2026-140AH,2026-07-10T21:37:06.458016,15.38789130,.0009101,51.8798,283.9064,291.0828,68.9186,0,U,69623,999,488,.37235E-3,.14152E-3,0
KUIPER-00561,2026-140AJ,2026-07-11T05:28:23.215008,15.38676800,.0008129,51.8813,282.3565,291.7565,68.2556,0,U,69624,999,493,.62313E-3,.2389E-3,0
KUIPER-00564,2026-140AK,2026-07-10T08:00:03.000384,15.37260467,.00092617,51.8816,286.6867,280.2463,161.3962,0,U,69625,999,404,-.40894155E-4,-.1914E-4,0
KUIPER-00567,2026-140AL,2026-07-10T18:25:40.628640,15.37993440,.0014214,51.8786,284.5160,269.5283,90.4076,0,U,69626,999,486,.54503E-2,.213007E-2,0
KUIPER-00573,2026-140AM,2026-07-11T05:39:59.332032,15.37404550,.0009235,51.8787,282.4002,270.9051,89.0878,0,U,69627,999,493,.28689E-3,.10318E-3,0
