KUIPER-00513            
1 69598U 26140G   26191.91203824  .00014268  00000+0  38385-3 0  9998
2 69598  51.8811 283.9899 0008464 329.1913  30.8576 15.38099831  4887
KUIPER-00516            
1 69599U 26140H   26190.61880120  .00012103  00000+0  33370-3 0  9990
2 69599  51.8784 290.3069 0006835 334.1487  25.9157 15.37505084  4689
KUIPER-00517            
1 69600U 26140J   26191.89869127  .00023974  00000+0  62329-3 0  9992
2 69600  51.8782 283.8906 0010559 279.1127  80.8666 15.38752830  4885
KUIPER-00520            
1 69601U 26140K   26190.61986370  .00026029  00000+0  70279-3 0  9999
2 69601  51.8793 290.3215 0006880 333.8181  26.2457 15.37569154  4688
KUIPER-00522            
1 69602U 26140L   26192.21975307  .00019330  00000+0  50704-3 0  9994
2 69602  51.8783 282.2957 0013056 251.1977 108.7594 15.38591542  4932
KUIPER-00528            
1 69603U 26140M   26190.62200721  .00024351  00000+0  66169-3 0  9990
2 69603  51.8764 290.3271 0005926 340.6948  19.3813 15.37415170  4684
KUIPER-00532            
1 69604U 26140N   26191.86580203  .00021210  00000+0  59406-3 0  9991
2 69604  51.8773 284.4109 0004385  22.9967 337.1215 15.36565844  4879
KUIPER-00533            
1 69605U 26140P   26191.90838475  .00014296  00000+0  38316-3 0  9997
2 69605  51.8795 283.9557 0008355 304.7442  55.2758 15.38215921  4886
KUIPER-00534            
1 69606U 26140Q   26191.89007025  .00017089  00000+0  44872-3 0  9992
2 69606  51.8821 283.8428 0013293 252.6383 107.3151 15.38648491  4883
KUIPER-00537            
1 69607U 26140R   26191.81808865  .00010962  00000+0  33566-3 0  9997
2 69607  51.8795 284.8475 0010875  40.5158 319.6635 15.34278710  4866
KUIPER-00538            
1 69608U 26140S   26191.78755763  .00022003  00000+0  59406-3 0  9992
2 69608  51.8801 284.6464 0006367 326.1928  33.8652 15.37674850  4862
KUIPER-00540            
1 69609U 26140T   26191.60221450  .00018092  00000+0  50281-3 0  9990
2 69609  51.8833 285.6586 0006428  10.6370 349.4751 15.36908561  4839
KUIPER-00541            
1 69610U 26140U   26191.90842681  .00013847  00000+0  36978-3 0  9990
2 69610  51.8827 283.9683 0008334 308.1236  51.8999 15.38356975  4888
KUIPER-00542            
1 69611U 26140V   26191.90686972  .00017716  00000+0  47198-3 0  9995
2 69611  51.8805 283.9498 0008215 300.4533  59.5642 15.38225960  4881
KUIPER-00543            
1 69612U 26140W   26190.63093524  .00011141  00000+0  31556-3 0  9997
2 69612  51.8763 290.3813 0007703  16.9946 343.1297 15.36747809  4681
KUIPER-00544            
1 69613U 26140X   26192.23590587  .00019947  00000+0  53187-3 0  9993
2 69613  51.8794 282.4003 0006795 309.4065  50.6320 15.38122983  4938
KUIPER-00546            
1 69614U 26140Y   26191.89085384  .00019861  00000+0  51686-3 0  9996
2 69614  51.8779 283.8413 0014315 247.6445 112.3025 15.38799892  4885
KUIPER-00547            
1 69615U 26140Z   26191.77451656  .00017472  00000+0  47100-3 0  9995
2 69615  51.8821 284.5670 0010813 274.6951  85.2801 15.37847980  4867
KUIPER-00549            
1 69616U 26140AA  26191.85829176 -.00005771  00000+0 -14489-3 0  9996
2 69616  51.8787 284.3653 0007424   1.6768 358.4242 15.37283743  4872
KUIPER-00550            
1 69617U 26140AB  26191.89312451  .00021664  00000+0  68036-3 0  9998
2 69617  51.8788 284.5897 0007243  42.2863 317.8679 15.32923437  4871
KUIPER-00551            
1 69618U 26140AC  26191.89747831  .00034373  00000+0  89896-3 0  9991
2 69618  51.8787 283.8874 0011772 267.3163  92.6477 15.38362313  4884
KUIPER-00554            
1 69619U 26140AD  26191.25298191  .00022076  00000+0  59105-3 0  9999
2 69619  51.8775 287.0639 0010891 274.9137  85.0606 15.37895633  4787
KUIPER-00555            
1 69620U 26140AE  26192.22496475  .00011757  00000+0  32017-3 0  9991
2 69620  51.8816 282.3402 0011149 267.7347  92.2364 15.37887478  4937
KUIPER-00556            
1 69621U 26140AF  26191.89993433  .00016169  00000+0  43068-3 0  9990
2 69621  51.8809 283.9056 0012047 253.3320 106.6344 15.38267241  4885
KUIPER-00557            
1 69622U 26140AG  26191.77749363  .00015968  00000+0  43621-3 0  9990
2 69622  51.8794 284.5803 0009810 280.2133  79.7748 15.37516845  4863
KUIPER-00560            
1 69623U 26140AH  26191.90076919  .00014152  00000+0  37235-3 0  9994
2 69623  51.8798 283.9064 0009101 291.0828  68.9186 15.38789130  4882
KUIPER-00561            
1 69624U 26140AJ  26192.22804647  .00023890  00000+0  62313-3 0  9992
2 69624  51.8813 282.3565 0008129 291.7565  68.2556 15.38676800  4933
KUIPER-00564            
1 69625U 26140AK  26191.33336806 -.00001914  00000+0 -40894-4 0  9997
2 69625  51.8816 286.6867 0009261 280.2463 161.3962 15.37260467  4042
KUIPER-00567            
1 69626U 26140AL  26191.76783135  .00213007  00000+0  54503-2 0  9992
2 69626  51.8786 284.5160 0014214 269.5283  90.4076 15.37993440  4868
KUIPER-00573            
1 69627U 26140AM  26192.23610338  .00010318  00000+0  28689-3 0  9997
2 69627  51.8787 282.4002 0009235 270.9051  89.0878 15.37404550  4939
